{"type":"FeatureCollection","features":[{"type":"Feature","properties":{"name":"Սևանա լիճ"},"geometry":{"type":"MultiPolygon","coordinates":[[[[45.4381,40.4317],[45.4628,40.4104],[45.4699,40.4011],[45.4725,40.3928],[45.5139,40.3698],[45.5411,40.3655],[45.5683,40.3501],[45.5788,40.3414],[45.5908,40.3265],[45.6146,40.3062],[45.6252,40.2919],[45.6374,40.2688],[45.6447,40.243],[45.6432,40.2269],[45.6366,40.2231],[45.6404,40.2195],[45.6386,40.2186],[45.6369,40.2039],[45.6278,40.1952],[45.6053,40.1828],[45.583,40.1824],[45.5685,40.1769],[45.5639,40.1782],[45.5551,40.1761],[45.5439,40.1785],[45.5202,40.1644],[45.5124,40.1629],[45.5071,40.1645],[45.4955,40.1609],[45.4803,40.1716],[45.4687,40.1887],[45.4622,40.1916],[45.4125,40.1624],[45.3756,40.1529],[45.3576,40.156],[45.329,40.154],[45.2948,40.1646],[45.2603,40.187],[45.2537,40.1878],[45.2446,40.1854],[45.2374,40.1977],[45.2356,40.2134],[45.2264,40.2285],[45.2209,40.2478],[45.2205,40.2671],[45.2261,40.2783],[45.2195,40.2789],[45.2173,40.2846],[45.222,40.3059],[45.2175,40.3253],[45.2243,40.3622],[45.2215,40.3862],[45.2184,40.3949],[45.2142,40.398],[45.2161,40.3995],[45.2135,40.4146],[45.2183,40.4305],[45.211,40.4318],[45.1835,40.4224],[45.1603,40.4213],[45.1501,40.4186],[45.1148,40.4212],[45.1051,40.4275],[45.1048,40.4308],[45.1086,40.4326],[45.108,40.4383],[45.1123,40.4396],[45.1129,40.4455],[45.1078,40.4482],[45.1025,40.4641],[45.0939,40.4656],[45.088,40.4629],[45.0811,40.4652],[45.0749,40.4628],[45.0676,40.4685],[45.0676,40.4745],[45.0612,40.4759],[45.0594,40.4804],[45.0529,40.4801],[45.051,40.4907],[45.0491,40.4889],[45.0493,40.4916],[45.0444,40.4933],[45.0444,40.4954],[45.0511,40.4981],[45.0536,40.5034],[45.0616,40.5084],[45.0611,40.5103],[45.0566,40.5048],[45.0514,40.504],[45.052,40.5021],[45.0433,40.5093],[45.0482,40.5114],[45.0465,40.5148],[45.0421,40.5137],[45.0435,40.5155],[45.0394,40.5154],[45.039,40.5119],[45.0351,40.5128],[45.0317,40.5069],[45.0312,40.5093],[45.0277,40.5102],[45.0295,40.515],[45.0209,40.5124],[45.0117,40.5146],[45.0063,40.511],[45.0035,40.513],[44.9991,40.5089],[44.9963,40.5117],[44.9938,40.5092],[44.9863,40.5126],[44.9811,40.5114],[44.9753,40.5149],[44.9695,40.5123],[44.9555,40.5121],[44.9479,40.5218],[44.9562,40.5334],[44.963,40.5367],[44.9797,40.5334],[44.9958,40.5439],[44.996,40.5487],[44.9859,40.5513],[44.9893,40.5524],[44.9708,40.554],[44.9891,40.5531],[44.9983,40.5641],[45.0143,40.5619],[45.0198,40.5633],[45.0168,40.5669],[45.0008,40.5679],[44.995,40.5783],[44.9715,40.588],[44.9675,40.5923],[44.9641,40.603],[44.9713,40.613],[44.9708,40.6195],[44.9811,40.6304],[44.986,40.632],[44.9987,40.6296],[45.0168,40.6202],[45.0329,40.6176],[45.0438,40.6093],[45.06,40.6104],[45.0657,40.6054],[45.0826,40.6019],[45.088,40.5965],[45.0985,40.5953],[45.1471,40.5668],[45.1728,40.566],[45.2029,40.5506],[45.2208,40.5282],[45.2429,40.5201],[45.2491,40.5045],[45.2781,40.4937],[45.279,40.4832],[45.2693,40.4619],[45.2705,40.4585],[45.2918,40.4629],[45.3053,40.4628],[45.3142,40.4595],[45.3292,40.4487],[45.339,40.4452],[45.3495,40.4457],[45.359,40.4568],[45.3602,40.466],[45.3568,40.4662],[45.3553,40.4616],[45.3457,40.4656],[45.347,40.4676],[45.3423,40.4724],[45.3457,40.4734],[45.3439,40.4776],[45.3544,40.4832],[45.3729,40.4832],[45.3892,40.4791],[45.4094,40.4692],[45.4162,40.4623],[45.4282,40.441],[45.4381,40.4317]],[[45.0511,40.4961],[45.054,40.495],[45.0532,40.4929],[45.0528,40.4946],[45.0503,40.4933],[45.0511,40.4961]],[[44.9498,40.5258],[44.9529,40.5259],[44.9498,40.5258]],[[44.9492,40.5243],[44.9492,40.5243]],[[44.9493,40.524],[44.9485,40.5215],[44.9493,40.524]],[[45.0372,40.5138],[45.0372,40.5138]],[[45.0376,40.5181],[45.0378,40.516],[45.0348,40.5179],[45.0376,40.5181]],[[45.0404,40.5166],[45.0426,40.5178],[45.0404,40.5166]],[[44.9593,40.514],[44.9593,40.514]],[[44.9915,40.5105],[44.9915,40.5105]],[[44.9847,40.5127],[44.9847,40.5127]],[[45.3501,40.4816],[45.3501,40.4816]],[[45.3485,40.481],[45.3485,40.481]],[[45.3552,40.4833],[45.3552,40.4833]],[[45.3557,40.4834],[45.3557,40.4834]],[[45.3563,40.4835],[45.3563,40.4835]]]]}}]}